{"type": "FeatureCollection", "features": [{"type": "Feature", "properties": {"norad_id": 22490, "name": "SCD 1", "group": "resource", "lat": -12.759254666190348, "lon": 177.54115567536223, "alt_km": 753.0685953012535, "timestamp": "2025-12-24T09:46:30.651749+00:00", "meta": {"OBJECT_NAME": "SCD 1", "OBJECT_ID": "1993-009B", "EPOCH": "2025-12-24T00:42:27.383040", "MEAN_MOTION": 14.46006187, "ECCENTRICITY": 0.0042181, "INCLINATION": 24.9677, "RA_OF_ASC_NODE": 208.9929, "ARG_OF_PERICENTER": 84.3054, "MEAN_ANOMALY": 73.8287, "EPHEMERIS_TYPE": 0, "CLASSIFICATION_TYPE": "U", "NORAD_CAT_ID": 22490, "ELEMENT_SET_NO": 999, "REV_AT_EPOCH": 73573, "BSTAR": 7.7315e-05, "MEAN_MOTION_DOT": 4.68e-06, "MEAN_MOTION_DDOT": 0}, "tle": {"line1": "1 22490U 93009B   25358.02948360  .00000468  00000+0  77315-4 0  9997", "line2": "2 22490  24.9677 208.9929 0042181  84.3054  73.8287 14.46006187735730"}}, "geometry": {"type": "Point", "coordinates": [177.54115567536223, -12.759254666190348]}}, {"type": "Feature", "properties": {"norad_id": 25397, "name": "TECHSAT 1B (GO-32)", "group": "resource", "lat": -23.81723318623722, "lon": 157.88076640418228, "alt_km": 817.1958023588222, "timestamp": "2025-12-24T09:46:30.651781+00:00", "meta": {"OBJECT_NAME": "TECHSAT 1B (GO-32)", "OBJECT_ID": "1998-043D", "EPOCH": "2025-12-23T22:42:18.147168", "MEAN_MOTION": 14.24380036, "ECCENTRICITY": 0.0001695, "INCLINATION": 98.9932, "RA_OF_ASC_NODE": 341.4173, "ARG_OF_PERICENTER": 39.0327, "MEAN_ANOMALY": 321.0973, "EPHEMERIS_TYPE": 0, "CLASSIFICATION_TYPE": "U", "NORAD_CAT_ID": 25397, "ELEMENT_SET_NO": 999, "REV_AT_EPOCH": 42638, "BSTAR": 5.343e-05, "MEAN_MOTION_DOT": 7.7e-07, "MEAN_MOTION_DDOT": 0}, "tle": {"line1": "1 25397U 98043D   25357.94604337  .00000077  00000+0  53430-4 0  9990", "line2": "2 25397  98.9932 341.4173 0001695  39.0327 321.0973 14.24380036426385"}}, "geometry": {"type": "Point", "coordinates": [157.88076640418228, -23.81723318623722]}}, {"type": "Feature", "properties": {"norad_id": 25504, "name": "SCD 2", "group": "resource", "lat": -9.764515142379002, "lon": 48.27697323600802, "alt_km": 741.9213337599795, "timestamp": "2025-12-24T09:46:30.651798+00:00", "meta": {"OBJECT_NAME": "SCD 2", "OBJECT_ID": "1998-060A", "EPOCH": "2025-12-23T23:01:37.909056", "MEAN_MOTION": 14.4542914, "ECCENTRICITY": 0.0017059, "INCLINATION": 24.9953, "RA_OF_ASC_NODE": 72.7138, "ARG_OF_PERICENTER": 71.7341, "MEAN_ANOMALY": 89.7798, "EPHEMERIS_TYPE": 0, "CLASSIFICATION_TYPE": "U", "NORAD_CAT_ID": 25504, "ELEMENT_SET_NO": 999, "REV_AT_EPOCH": 43494, "BSTAR": 6.9047e-05, "MEAN_MOTION_DOT": 4.29e-06, "MEAN_MOTION_DDOT": 0}, "tle": {"line1": "1 25504U 98060A   25357.95946654  .00000429  00000+0  69047-4 0  9993", "line2": "2 25504  24.9953  72.7138 0017059  71.7341  89.7798 14.45429140434949"}}, "geometry": {"type": "Point", "coordinates": [48.27697323600802, -9.764515142379002]}}, {"type": "Feature", "properties": {"norad_id": 25757, "name": "DLR-TUBSAT", "group": "resource", "lat": 23.894588838004932, "lon": 167.15108982581054, "alt_km": 707.2924340616519, "timestamp": "2025-12-24T09:46:30.651812+00:00", "meta": {"OBJECT_NAME": "DLR-TUBSAT", "OBJECT_ID": "1999-029B", "EPOCH": "2025-12-17T13:22:10.787520", "MEAN_MOTION": 14.52359578, "ECCENTRICITY": 0.00141996, "INCLINATION": 98.6566, "RA_OF_ASC_NODE": 336.2196, "ARG_OF_PERICENTER": 177.8976, "MEAN_ANOMALY": 182.2281, "EPHEMERIS_TYPE": 0, "CLASSIFICATION_TYPE": "U", "NORAD_CAT_ID": 25757, "ELEMENT_SET_NO": 999, "REV_AT_EPOCH": 40688, "BSTAR": 3.7650132e-05, "MEAN_MOTION_DOT": 1.05e-06, "MEAN_MOTION_DDOT": 0}, "tle": {"line1": "1 25757U 99029B   25351.55706930  .00000105  00000+0  37650-4 0  9996", "line2": "2 25757  98.6566 336.2196 0014199 177.8976 182.2281 14.52359578406886"}}, "geometry": {"type": "Point", "coordinates": [167.15108982581054, 23.894588838004932]}}, {"type": "Feature", "properties": {"norad_id": 25994, "name": "TERRA", "group": "resource", "lat": -36.511999541642254, "lon": -136.29277916601868, "alt_km": 698.5837743131542, "timestamp": "2025-12-24T09:46:30.651824+00:00", "meta": {"OBJECT_NAME": "TERRA", "OBJECT_ID": "1999-068A", "EPOCH": "2025-12-24T02:28:24.140352", "MEAN_MOTION": 14.60914122, "ECCENTRICITY": 0.0003449, "INCLINATION": 97.9732, "RA_OF_ASC_NODE": 49.3697, "ARG_OF_PERICENTER": 72.0027, "MEAN_ANOMALY": 345.6591, "EPHEMERIS_TYPE": 0, "CLASSIFICATION_TYPE": "U", "NORAD_CAT_ID": 25994, "ELEMENT_SET_NO": 999, "REV_AT_EPOCH": 38404, "BSTAR": 0.00010478, "MEAN_MOTION_DOT": 4.68e-06, "MEAN_MOTION_DDOT": 0}, "tle": {"line1": "1 25994U 99068A   25358.10305718  .00000468  00000+0  10478-3 0  9999", "line2": "2 25994  97.9732  49.3697 0003449  72.0027 345.6591 14.60914122384046"}}, "geometry": {"type": "Point", "coordinates": [-136.29277916601868, -36.511999541642254]}}, {"type": "Feature", "properties": {"norad_id": 27004, "name": "MAROC-TUBSAT", "group": "resource", "lat": 4.503596558530049, "lon": 166.2772377254229, "alt_km": 1010.9665463367191, "timestamp": "2025-12-24T09:46:30.651837+00:00", "meta": {"OBJECT_NAME": "MAROC-TUBSAT", "OBJECT_ID": "2001-056D", "EPOCH": "2025-12-24T03:18:19.001088", "MEAN_MOTION": 13.70253444, "ECCENTRICITY": 0.0019245, "INCLINATION": 99.7916, "RA_OF_ASC_NODE": 166.7824, "ARG_OF_PERICENTER": 229.9491, "MEAN_ANOMALY": 245.4589, "EPHEMERIS_TYPE": 0, "CLASSIFICATION_TYPE": "U", "NORAD_CAT_ID": 27004, "ELEMENT_SET_NO": 999, "REV_AT_EPOCH": 20221, "BSTAR": 2.1662e-05, "MEAN_MOTION_DOT": -2.8e-07, "MEAN_MOTION_DDOT": 0}, "tle": {"line1": "1 27004U 01056D   25358.13771992 -.00000028  00000+0  21662-4 0  9998", "line2": "2 27004  99.7916 166.7824 0019245 229.9491 245.4589 13.70253444202214"}}, "geometry": {"type": "Point", "coordinates": [166.2772377254229, 4.503596558530049]}}, {"type": "Feature", "properties": {"norad_id": 27424, "name": "AQUA", "group": "resource", "lat": 48.68279799469009, "lon": 149.1602463370895, "alt_km": 681.9125230292975, "timestamp": "2025-12-24T09:46:30.651850+00:00", "meta": {"OBJECT_NAME": "AQUA", "OBJECT_ID": "2002-022A", "EPOCH": "2025-12-23T20:08:03.450912", "MEAN_MOTION": 14.61824731, "ECCENTRICITY": 0.00015094, "INCLINATION": 98.4053, "RA_OF_ASC_NODE": 318.8992, "ARG_OF_PERICENTER": 108.9448, "MEAN_ANOMALY": 272.2576, "EPHEMERIS_TYPE": 0, "CLASSIFICATION_TYPE": "U", "NORAD_CAT_ID": 27424, "ELEMENT_SET_NO": 999, "REV_AT_EPOCH": 25765, "BSTAR": 0.00020597954, "MEAN_MOTION_DOT": 9.8e-06, "MEAN_MOTION_DDOT": 0}, "tle": {"line1": "1 27424U 02022A   25357.83892883  .00000980  00000+0  20598-3 0  9999", "line2": "2 27424  98.4053 318.8992 0001509 108.9448 272.2576 14.61824731257652"}}, "geometry": {"type": "Point", "coordinates": [149.1602463370895, 48.68279799469009]}}, {"type": "Feature", "properties": {"norad_id": 28051, "name": "IRS-P6 (RESOURCESAT-1)", "group": "resource", "lat": -5.423950132393891, "lon": 39.058696742450515, "alt_km": 815.6828011368862, "timestamp": "2025-12-24T09:46:30.651861+00:00", "meta": {"OBJECT_NAME": "IRS-P6 (RESOURCESAT-1)", "OBJECT_ID": "2003-046A", "EPOCH": "2025-12-24T05:08:20.084640", "MEAN_MOTION": 14.36079416, "ECCENTRICITY": 0.0064853, "INCLINATION": 98.2159, "RA_OF_ASC_NODE": 38.0885, "ARG_OF_PERICENTER": 146.4157, "MEAN_ANOMALY": 290.4542, "EPHEMERIS_TYPE": 0, "CLASSIFICATION_TYPE": "U", "NORAD_CAT_ID": 28051, "ELEMENT_SET_NO": 999, "REV_AT_EPOCH": 15541, "BSTAR": 3.9293e-05, "MEAN_MOTION_DOT": 7.6e-07, "MEAN_MOTION_DDOT": 0}, "tle": {"line1": "1 28051U 03046A   25358.21412135  .00000076  00000+0  39293-4 0  9993", "line2": "2 28051  98.2159  38.0885 0064853 146.4157 290.4542 14.36079416155411"}}, "geometry": {"type": "Point", "coordinates": [39.058696742450515, -5.423950132393891]}}, {"type": "Feature", "properties": {"norad_id": 28220, "name": "SHIYAN-1 (SY-1)", "group": "resource", "lat": 43.379276086361024, "lon": -111.83286653036608, "alt_km": 479.63288700717567, "timestamp": "2025-12-24T09:46:30.651873+00:00", "meta": {"OBJECT_NAME": "SHIYAN-1 (SY-1)", "OBJECT_ID": "2004-012A", "EPOCH": "2025-12-24T02:53:48.173280", "MEAN_MOTION": 15.28429597, "ECCENTRICITY": 0.0005127, "INCLINATION": 97.8916, "RA_OF_ASC_NODE": 60.3318, "ARG_OF_PERICENTER": 277.5215, "MEAN_ANOMALY": 82.5441, "EPHEMERIS_TYPE": 0, "CLASSIFICATION_TYPE": "U", "NORAD_CAT_ID": 28220, "ELEMENT_SET_NO": 999, "REV_AT_EPOCH": 18430, "BSTAR": 0.00052439, "MEAN_MOTION_DOT": 0.00014449, "MEAN_MOTION_DDOT": 0}, "tle": {"line1": "1 28220U 04012A   25358.12069645  .00014449  00000+0  52439-3 0  9994", "line2": "2 28220  97.8916  60.3318 0005127 277.5215  82.5441 15.28429597184303"}}, "geometry": {"type": "Point", "coordinates": [-111.83286653036608, 43.379276086361024]}}, {"type": "Feature", "properties": {"norad_id": 28376, "name": "AURA", "group": "resource", "lat": -45.15716011345069, "lon": 120.22759108308277, "alt_km": 697.4754770376421, "timestamp": "2025-12-24T09:46:30.651885+00:00", "meta": {"OBJECT_NAME": "AURA", "OBJECT_ID": "2004-026A", "EPOCH": "2025-12-24T03:48:51.355008", "MEAN_MOTION": 14.60971548, "ECCENTRICITY": 0.0001421, "INCLINATION": 98.3202, "RA_OF_ASC_NODE": 308.4396, "ARG_OF_PERICENTER": 91.2354, "MEAN_ANOMALY": 268.9009, "EPHEMERIS_TYPE": 0, "CLASSIFICATION_TYPE": "U", "NORAD_CAT_ID": 28376, "ELEMENT_SET_NO": 999, "REV_AT_EPOCH": 14065, "BSTAR": 0.0002176, "MEAN_MOTION_DOT": 1.019e-05, "MEAN_MOTION_DDOT": 0}, "tle": {"line1": "1 28376U 04026A   25358.15892772  .00001019  00000+0  21760-3 0  9991", "line2": "2 28376  98.3202 308.4396 0001421  91.2354 268.9009 14.60971548140652"}}, "geometry": {"type": "Point", "coordinates": [120.22759108308277, -45.15716011345069]}}]}